*******************************************************************************
Ephemeris / WWW_USER Fri Mar  7 09:48:10 2025 Pasadena, USA      / Horizons    
*******************************************************************************
Target body name: Pluto (999)                     {source: plu060_merged}
Center body name: Earth (399)                     {source: DE441}
Center-site name: Mauna Kea
*******************************************************************************
Start time      : A.D. 2018-Nov-21 03:51:00.0000 UT      
Stop  time      : A.D. 2018-Nov-21 16:24:00.0000 UT      
Step-size       : 1 minutes
*******************************************************************************
Target pole/equ : IAU_PLUTO                       {East-longitude positive}
Target radii    : 1188.3, 1188.3, 1188.3 km       {Equator_a, b, pole_c}       
Center geodetic : 204.5278, 19.8260847, 4.21024   {E-lon(deg),Lat(deg),Alt(km)}
Center cylindric: 204.5278, 6006.35451, 2151.0229 {E-lon(deg),Dxy(km),Dz(km)}
Center pole/equ : ITRF93                          {East-longitude positive}
Center radii    : 6378.137, 6378.137, 6356.752 km {Equator_a, b, pole_c}       
Target primary  : Sun
Vis. interferer : MOON (R_eq= 1737.400) km        {source: DE441}
Rel. light bend : Sun                             {source: plu060_merged}
Rel. lght bnd GM: 1.3271E+11 km^3/s^2                                          
Atmos refraction: NO (AIRLESS)
RA format       : HMS
Time format     : CAL 
Calendar mode   : Mixed Julian/Gregorian
RTS-only print  : NO       
EOP file        : eop.250306.p250602                                           
EOP coverage    : DATA-BASED 1962-JAN-20 TO 2025-MAR-06. PREDICTS-> 2025-JUN-01
Units conversion: 1 au= 149597870.700 km, c= 299792.458 km/s, 1 day= 86400.0 s 
Table cut-offs 1: Elevation (-90.0deg=NO ),Airmass (>38.000=NO), Daylight (YES)
Table cut-offs 2: Solar elongation (  0.0,180.0=NO ),Local Hour Angle( 0.0=NO )
Table cut-offs 3: RA/DEC angular rate (     0.0=NO )                           
*******************************************************************************
 Date__(UT)__HR:MN     R.A._________(ICRF)_________DEC
******************************************************
$$SOE
 2018-Nov-21 08:33  m  19 22 53.533977 -22 06 49.11188
 2018-Nov-21 08:34  m  19 22 53.538269 -22 06 49.10692
 2018-Nov-21 08:35  m  19 22 53.542561 -22 06 49.10196
 2018-Nov-21 08:36  m  19 22 53.546854 -22 06 49.09701
 2018-Nov-21 08:37  m  19 22 53.551147 -22 06 49.09205
 2018-Nov-21 08:38  m  19 22 53.555441 -22 06 49.08709
 2018-Nov-21 08:39  m  19 22 53.559734 -22 06 49.08214
 2018-Nov-21 08:40  m  19 22 53.564029 -22 06 49.07718
 2018-Nov-21 08:41  m  19 22 53.568323 -22 06 49.07223
 2018-Nov-21 08:42  m  19 22 53.572618 -22 06 49.06728
 2018-Nov-21 08:43  m  19 22 53.576914 -22 06 49.06232
 2018-Nov-21 08:44  m  19 22 53.581209 -22 06 49.05737
 2018-Nov-21 08:45  m  19 22 53.585505 -22 06 49.05241
 2018-Nov-21 08:46  m  19 22 53.589802 -22 06 49.04746
 2018-Nov-21 08:47  m  19 22 53.594099 -22 06 49.04251
 2018-Nov-21 08:48  m  19 22 53.598396 -22 06 49.03756
 2018-Nov-21 08:49  m  19 22 53.602693 -22 06 49.03261
 2018-Nov-21 08:50  m  19 22 53.606991 -22 06 49.02765
 2018-Nov-21 08:51  m  19 22 53.611289 -22 06 49.02270
 2018-Nov-21 08:52  m  19 22 53.615588 -22 06 49.01775
 2018-Nov-21 08:53  m  19 22 53.619887 -22 06 49.01280
 2018-Nov-21 08:54  m  19 22 53.624186 -22 06 49.00785
 2018-Nov-21 08:55  m  19 22 53.628486 -22 06 49.00290
 2018-Nov-21 08:56  m  19 22 53.632786 -22 06 48.99796
 2018-Nov-21 08:57  m  19 22 53.637087 -22 06 48.99301
 2018-Nov-21 08:58  m  19 22 53.641387 -22 06 48.98806
 2018-Nov-21 08:59  m  19 22 53.645688 -22 06 48.98311
 2018-Nov-21 09:00  m  19 22 53.649990 -22 06 48.97817
 2018-Nov-21 09:01  m  19 22 53.654292 -22 06 48.97322
 2018-Nov-21 09:02  m  19 22 53.658594 -22 06 48.96827
 2018-Nov-21 09:03  m  19 22 53.662896 -22 06 48.96333
 2018-Nov-21 09:04  m  19 22 53.667199 -22 06 48.95838
 2018-Nov-21 09:05  m  19 22 53.671503 -22 06 48.95344
 2018-Nov-21 09:06  m  19 22 53.675806 -22 06 48.94849
 2018-Nov-21 09:07  m  19 22 53.680110 -22 06 48.94355
 2018-Nov-21 09:08  m  19 22 53.684415 -22 06 48.93861
 2018-Nov-21 09:09  m  19 22 53.688719 -22 06 48.93367
 2018-Nov-21 09:10  m  19 22 53.693024 -22 06 48.92872
 2018-Nov-21 09:11  m  19 22 53.697330 -22 06 48.92378
 2018-Nov-21 09:12  m  19 22 53.701635 -22 06 48.91884
 2018-Nov-21 09:13  m  19 22 53.705942 -22 06 48.91390
 2018-Nov-21 09:14  m  19 22 53.710248 -22 06 48.90896
 2018-Nov-21 09:15  m  19 22 53.714555 -22 06 48.90402
 2018-Nov-21 09:16  m  19 22 53.718862 -22 06 48.89909
 2018-Nov-21 09:17  m  19 22 53.723169 -22 06 48.89415
 2018-Nov-21 09:18  m  19 22 53.727477 -22 06 48.88921
 2018-Nov-21 09:19  m  19 22 53.731786 -22 06 48.88428
 2018-Nov-21 09:20  m  19 22 53.736094 -22 06 48.87934
 2018-Nov-21 09:21  m  19 22 53.740403 -22 06 48.87440
 2018-Nov-21 09:22  m  19 22 53.744712 -22 06 48.86947
 2018-Nov-21 09:23  m  19 22 53.749022 -22 06 48.86454
 2018-Nov-21 09:24  m  19 22 53.753332 -22 06 48.85960
 2018-Nov-21 09:25  m  19 22 53.757642 -22 06 48.85467
 2018-Nov-21 09:26  m  19 22 53.761953 -22 06 48.84974
 2018-Nov-21 09:27  m  19 22 53.766264 -22 06 48.84481
 2018-Nov-21 09:28  m  19 22 53.770575 -22 06 48.83988
 2018-Nov-21 09:29  m  19 22 53.774887 -22 06 48.83495
 2018-Nov-21 09:30  m  19 22 53.779199 -22 06 48.83002
 2018-Nov-21 09:31  m  19 22 53.783511 -22 06 48.82509
 2018-Nov-21 09:32  m  19 22 53.787824 -22 06 48.82016
 2018-Nov-21 09:33  m  19 22 53.792137 -22 06 48.81523
 2018-Nov-21 09:34  m  19 22 53.796450 -22 06 48.81031
 2018-Nov-21 09:35  m  19 22 53.800764 -22 06 48.80538
 2018-Nov-21 09:36  m  19 22 53.805078 -22 06 48.80046
 2018-Nov-21 09:37  m  19 22 53.809392 -22 06 48.79553
 2018-Nov-21 09:38  m  19 22 53.813707 -22 06 48.79061
 2018-Nov-21 09:39  m  19 22 53.818022 -22 06 48.78568
 2018-Nov-21 09:40  m  19 22 53.822337 -22 06 48.78076
 2018-Nov-21 09:41  m  19 22 53.826653 -22 06 48.77584
 2018-Nov-21 09:42  m  19 22 53.830969 -22 06 48.77092
 2018-Nov-21 09:43  m  19 22 53.835285 -22 06 48.76600
 2018-Nov-21 09:44  m  19 22 53.839602 -22 06 48.76108
 2018-Nov-21 09:45  m  19 22 53.843919 -22 06 48.75616
 2018-Nov-21 09:46  m  19 22 53.848236 -22 06 48.75125
 2018-Nov-21 09:47  m  19 22 53.852554 -22 06 48.74633
 2018-Nov-21 09:48  m  19 22 53.856872 -22 06 48.74141
 2018-Nov-21 09:49  m  19 22 53.861190 -22 06 48.73650
 2018-Nov-21 09:50  m  19 22 53.865509 -22 06 48.73158
 2018-Nov-21 09:51  m  19 22 53.869828 -22 06 48.72667
 2018-Nov-21 09:52  m  19 22 53.874147 -22 06 48.72176
 2018-Nov-21 09:53  m  19 22 53.878467 -22 06 48.71685
 2018-Nov-21 09:54  m  19 22 53.882787 -22 06 48.71194
 2018-Nov-21 09:55  m  19 22 53.887107 -22 06 48.70703
 2018-Nov-21 09:56  m  19 22 53.891428 -22 06 48.70212
 2018-Nov-21 09:57  m  19 22 53.895749 -22 06 48.69721
 2018-Nov-21 09:58  m  19 22 53.900070 -22 06 48.69230
 2018-Nov-21 09:59  m  19 22 53.904392 -22 06 48.68739
 2018-Nov-21 10:00  m  19 22 53.908714 -22 06 48.68249
 2018-Nov-21 10:01  m  19 22 53.913036 -22 06 48.67758
 2018-Nov-21 10:02  m  19 22 53.917358 -22 06 48.67268
 2018-Nov-21 10:03  m  19 22 53.921681 -22 06 48.66778
 2018-Nov-21 10:04  m  19 22 53.926004 -22 06 48.66287
 2018-Nov-21 10:05  m  19 22 53.930328 -22 06 48.65797
 2018-Nov-21 10:06  m  19 22 53.934652 -22 06 48.65307
 2018-Nov-21 10:07  m  19 22 53.938976 -22 06 48.64817
 2018-Nov-21 10:08  m  19 22 53.943300 -22 06 48.64327
 2018-Nov-21 10:09  m  19 22 53.947625 -22 06 48.63838
 2018-Nov-21 10:10  m  19 22 53.951950 -22 06 48.63348
 2018-Nov-21 10:11  m  19 22 53.956275 -22 06 48.62859
 2018-Nov-21 10:12  m  19 22 53.960601 -22 06 48.62369
 2018-Nov-21 10:13  m  19 22 53.964927 -22 06 48.61880
 2018-Nov-21 10:14  m  19 22 53.969253 -22 06 48.61390
 2018-Nov-21 10:15  m  19 22 53.973580 -22 06 48.60901
 2018-Nov-21 10:16  m  19 22 53.977907 -22 06 48.60412
 2018-Nov-21 10:17  m  19 22 53.982234 -22 06 48.59923
 2018-Nov-21 10:18  m  19 22 53.986562 -22 06 48.59434
 2018-Nov-21 10:19  m  19 22 53.990890 -22 06 48.58946
 2018-Nov-21 10:20  m  19 22 53.995218 -22 06 48.58457
 2018-Nov-21 10:21  m  19 22 53.999546 -22 06 48.57968
 2018-Nov-21 10:22  m  19 22 54.003875 -22 06 48.57480
 2018-Nov-21 10:23  m  19 22 54.008204 -22 06 48.56991
 2018-Nov-21 10:24  m  19 22 54.012533 -22 06 48.56503
 2018-Nov-21 10:25  m  19 22 54.016863 -22 06 48.56015
 2018-Nov-21 10:26  m  19 22 54.021193 -22 06 48.55527
 2018-Nov-21 10:27  m  19 22 54.025523 -22 06 48.55039
 2018-Nov-21 10:28  m  19 22 54.029853 -22 06 48.54551
 2018-Nov-21 10:29  m  19 22 54.034184 -22 06 48.54063
 2018-Nov-21 10:30  m  19 22 54.038515 -22 06 48.53576
 2018-Nov-21 10:31  m  19 22 54.042847 -22 06 48.53088
 2018-Nov-21 10:32  m  19 22 54.047178 -22 06 48.52601
 2018-Nov-21 10:33  m  19 22 54.051510 -22 06 48.52113
 2018-Nov-21 10:34  m  19 22 54.055843 -22 06 48.51626
 2018-Nov-21 10:35  m  19 22 54.060175 -22 06 48.51139
 2018-Nov-21 10:36  m  19 22 54.064508 -22 06 48.50652
 2018-Nov-21 10:37  m  19 22 54.068841 -22 06 48.50165
 2018-Nov-21 10:38  m  19 22 54.073175 -22 06 48.49678
 2018-Nov-21 10:39  m  19 22 54.077508 -22 06 48.49192
 2018-Nov-21 10:40  m  19 22 54.081842 -22 06 48.48705
 2018-Nov-21 10:41  m  19 22 54.086177 -22 06 48.48219
 2018-Nov-21 10:42  m  19 22 54.090511 -22 06 48.47732
 2018-Nov-21 10:43  m  19 22 54.094846 -22 06 48.47246
 2018-Nov-21 10:44  m  19 22 54.099181 -22 06 48.46760
 2018-Nov-21 10:45  m  19 22 54.103516 -22 06 48.46274
 2018-Nov-21 10:46  m  19 22 54.107852 -22 06 48.45788
 2018-Nov-21 10:47  m  19 22 54.112188 -22 06 48.45302
 2018-Nov-21 10:48  m  19 22 54.116524 -22 06 48.44817
 2018-Nov-21 10:49  m  19 22 54.120861 -22 06 48.44331
 2018-Nov-21 10:50  m  19 22 54.125198 -22 06 48.43846
 2018-Nov-21 10:51  m  19 22 54.129535 -22 06 48.43361
 2018-Nov-21 10:52  m  19 22 54.133872 -22 06 48.42875
 2018-Nov-21 10:53  m  19 22 54.138209 -22 06 48.42390
